SILVERSAT               
1 66909U 98067XV  26045.63914030  .00107018  00000+0  10758-2 0  9992
2 66909  51.6270 182.2339 0002929 303.3470  56.7245 15.64616576 11573
ISS OBJECT XW           
1 66910U 98067XW  26045.40482725  .00109816  00000+0  11845-2 0  9996
2 66910  51.6252 183.6647 0002235 332.2237  27.8637 15.62815467 11532
ISS OBJECT XX           
1 66911U 98067XX  26045.60417950  .00130484  00000+0  12316-2 0  9996
2 66911  51.6239 181.9920 0004032 322.3771  37.6942 15.66097988 11568
ISS OBJECT XY           
1 66912U 98067XY  26045.60668361  .00062914  00000+0  77333-3 0  9994
2 66912  51.6276 183.5201 0000507 330.7488  29.3476 15.59665475 11543
ISS OBJECT XZ           
1 67683U 98067XZ  26045.85220840  .00033065  00000+0  58456-3 0  9993
2 67683  51.6305 185.1569 0010575 112.0980 248.1133 15.49963145  1242
GXIBA-1                 
1 67684U 98067YA  26045.91307095  .00057638  00000+0  97918-3 0  9997
2 67684  51.6307 184.8144 0012314 106.2515 253.9830 15.50812601  1253
CORAL                   
1 67685U 98067YB  26045.85149064  .00038466  00000+0  67417-3 0  9990
2 67685  51.6306 185.1526 0012496 107.6658 252.5696 15.50110637  1249
ISS OBJECT YC           
1 67686U 98067YC  26045.91533069  .00043010  00000+0  74927-3 0  9995
2 67686  51.6309 184.8296 0007761  82.2619 277.9251 15.50281615  1251
LEOPARD                 
1 67687U 98067YD  26045.91625703  .00035301  00000+0  62197-3 0  9993
2 67687  51.6310 184.8354 0007844  84.3165 275.8718 15.50053793  1170
ISS OBJECT YE           
1 67688U 98067YE  26045.91555279  .00039845  00000+0  69677-3 0  9991
2 67688  51.6313 184.8318 0007748  82.8507 277.3363 15.50209615  1179
CREW DRAGON 12          
1 67796U 26031A   26044.61047855  .00465694  11779-4  25516-3 0  9994
2 67796  51.6318 191.8838 0025866 226.1048 133.7834 16.18051748    32
