CCSDS_OMM_VERS = 2.0
CREATION_DATE  = 
ORIGINATOR     = 

OBJECT_NAME    = SILVERSAT
OBJECT_ID      = 1998-067XV
CENTER_NAME    = EARTH
REF_FRAME      = TEME
TIME_SYSTEM    = UTC
MEAN_ELEMENT_THEORY = SGP/SGP4

EPOCH          = 2026-02-14T15:20:21.721920
MEAN_MOTION    = 15.64616576
ECCENTRICITY   = .0002929
INCLINATION    = 51.6270
RA_OF_ASC_NODE = 182.2339
ARG_OF_PERICENTER = 303.3470
MEAN_ANOMALY   = 56.7245

EPHEMERIS_TYPE = 0
CLASSIFICATION_TYPE = U
NORAD_CAT_ID   = 66909
ELEMENT_SET_NO = 999
REV_AT_EPOCH   = 1157
BSTAR          = .10758E-2
MEAN_MOTION_DOT = .107018E-2
MEAN_MOTION_DDOT = 0

CCSDS_OMM_VERS = 2.0
CREATION_DATE  = 
ORIGINATOR     = 

OBJECT_NAME    = ISS OBJECT XW
OBJECT_ID      = 1998-067XW
CENTER_NAME    = EARTH
REF_FRAME      = TEME
TIME_SYSTEM    = UTC
MEAN_ELEMENT_THEORY = SGP/SGP4

EPOCH          = 2026-02-14T09:42:57.074400
MEAN_MOTION    = 15.62815467
ECCENTRICITY   = .0002235
INCLINATION    = 51.6252
RA_OF_ASC_NODE = 183.6647
ARG_OF_PERICENTER = 332.2237
MEAN_ANOMALY   = 27.8637

EPHEMERIS_TYPE = 0
CLASSIFICATION_TYPE = U
NORAD_CAT_ID   = 66910
ELEMENT_SET_NO = 999
REV_AT_EPOCH   = 1153
BSTAR          = .11845E-2
MEAN_MOTION_DOT = .109816E-2
MEAN_MOTION_DDOT = 0

CCSDS_OMM_VERS = 2.0
CREATION_DATE  = 
ORIGINATOR     = 

OBJECT_NAME    = ISS OBJECT XX
OBJECT_ID      = 1998-067XX
CENTER_NAME    = EARTH
REF_FRAME      = TEME
TIME_SYSTEM    = UTC
MEAN_ELEMENT_THEORY = SGP/SGP4

EPOCH          = 2026-02-14T14:30:01.108800
MEAN_MOTION    = 15.66097988
ECCENTRICITY   = .0004032
INCLINATION    = 51.6239
RA_OF_ASC_NODE = 181.9920
ARG_OF_PERICENTER = 322.3771
MEAN_ANOMALY   = 37.6942

EPHEMERIS_TYPE = 0
CLASSIFICATION_TYPE = U
NORAD_CAT_ID   = 66911
ELEMENT_SET_NO = 999
REV_AT_EPOCH   = 1156
BSTAR          = .12316E-2
MEAN_MOTION_DOT = .130484E-2
MEAN_MOTION_DDOT = 0

CCSDS_OMM_VERS = 2.0
CREATION_DATE  = 
ORIGINATOR     = 

OBJECT_NAME    = ISS OBJECT XY
OBJECT_ID      = 1998-067XY
CENTER_NAME    = EARTH
REF_FRAME      = TEME
TIME_SYSTEM    = UTC
MEAN_ELEMENT_THEORY = SGP/SGP4

EPOCH          = 2026-02-14T14:33:37.463904
MEAN_MOTION    = 15.59665475
ECCENTRICITY   = .0000507
INCLINATION    = 51.6276
RA_OF_ASC_NODE = 183.5201
ARG_OF_PERICENTER = 330.7488
MEAN_ANOMALY   = 29.3476

EPHEMERIS_TYPE = 0
CLASSIFICATION_TYPE = U
NORAD_CAT_ID   = 66912
ELEMENT_SET_NO = 999
REV_AT_EPOCH   = 1154
BSTAR          = .77333E-3
MEAN_MOTION_DOT = .62914E-3
MEAN_MOTION_DDOT = 0

CCSDS_OMM_VERS = 2.0
CREATION_DATE  = 
ORIGINATOR     = 

OBJECT_NAME    = ISS OBJECT XZ
OBJECT_ID      = 1998-067XZ
CENTER_NAME    = EARTH
REF_FRAME      = TEME
TIME_SYSTEM    = UTC
MEAN_ELEMENT_THEORY = SGP/SGP4

EPOCH          = 2026-02-14T20:27:10.805760
MEAN_MOTION    = 15.49963145
ECCENTRICITY   = .0010575
INCLINATION    = 51.6305
RA_OF_ASC_NODE = 185.1569
ARG_OF_PERICENTER = 112.0980
MEAN_ANOMALY   = 248.1133

EPHEMERIS_TYPE = 0
CLASSIFICATION_TYPE = U
NORAD_CAT_ID   = 67683
ELEMENT_SET_NO = 999
REV_AT_EPOCH   = 124
BSTAR          = .58456E-3
MEAN_MOTION_DOT = .33065E-3
MEAN_MOTION_DDOT = 0

CCSDS_OMM_VERS = 2.0
CREATION_DATE  = 
ORIGINATOR     = 

OBJECT_NAME    = GXIBA-1
OBJECT_ID      = 1998-067YA
CENTER_NAME    = EARTH
REF_FRAME      = TEME
TIME_SYSTEM    = UTC
MEAN_ELEMENT_THEORY = SGP/SGP4

EPOCH          = 2026-02-14T21:54:49.330080
MEAN_MOTION    = 15.50812601
ECCENTRICITY   = .0012314
INCLINATION    = 51.6307
RA_OF_ASC_NODE = 184.8144
ARG_OF_PERICENTER = 106.2515
MEAN_ANOMALY   = 253.9830

EPHEMERIS_TYPE = 0
CLASSIFICATION_TYPE = U
NORAD_CAT_ID   = 67684
ELEMENT_SET_NO = 999
REV_AT_EPOCH   = 125
BSTAR          = .97918E-3
MEAN_MOTION_DOT = .57638E-3
MEAN_MOTION_DDOT = 0

CCSDS_OMM_VERS = 2.0
CREATION_DATE  = 
ORIGINATOR     = 

OBJECT_NAME    = CORAL
OBJECT_ID      = 1998-067YB
CENTER_NAME    = EARTH
REF_FRAME      = TEME
TIME_SYSTEM    = UTC
MEAN_ELEMENT_THEORY = SGP/SGP4

EPOCH          = 2026-02-14T20:26:08.791296
MEAN_MOTION    = 15.50110637
ECCENTRICITY   = .0012496
INCLINATION    = 51.6306
RA_OF_ASC_NODE = 185.1526
ARG_OF_PERICENTER = 107.6658
MEAN_ANOMALY   = 252.5696

EPHEMERIS_TYPE = 0
CLASSIFICATION_TYPE = U
NORAD_CAT_ID   = 67685
ELEMENT_SET_NO = 999
REV_AT_EPOCH   = 124
BSTAR          = .67417E-3
MEAN_MOTION_DOT = .38466E-3
MEAN_MOTION_DDOT = 0

CCSDS_OMM_VERS = 2.0
CREATION_DATE  = 
ORIGINATOR     = 

OBJECT_NAME    = ISS OBJECT YC
OBJECT_ID      = 1998-067YC
CENTER_NAME    = EARTH
REF_FRAME      = TEME
TIME_SYSTEM    = UTC
MEAN_ELEMENT_THEORY = SGP/SGP4

EPOCH          = 2026-02-14T21:58:04.571616
MEAN_MOTION    = 15.50281615
ECCENTRICITY   = .0007761
INCLINATION    = 51.6309
RA_OF_ASC_NODE = 184.8296
ARG_OF_PERICENTER = 82.2619
MEAN_ANOMALY   = 277.9251

EPHEMERIS_TYPE = 0
CLASSIFICATION_TYPE = U
NORAD_CAT_ID   = 67686
ELEMENT_SET_NO = 999
REV_AT_EPOCH   = 125
BSTAR          = .74927E-3
MEAN_MOTION_DOT = .4301E-3
MEAN_MOTION_DDOT = 0

CCSDS_OMM_VERS = 2.0
CREATION_DATE  = 
ORIGINATOR     = 

OBJECT_NAME    = LEOPARD
OBJECT_ID      = 1998-067YD
CENTER_NAME    = EARTH
REF_FRAME      = TEME
TIME_SYSTEM    = UTC
MEAN_ELEMENT_THEORY = SGP/SGP4

EPOCH          = 2026-02-14T21:59:24.607392
MEAN_MOTION    = 15.50053793
ECCENTRICITY   = .0007844
INCLINATION    = 51.6310
RA_OF_ASC_NODE = 184.8354
ARG_OF_PERICENTER = 84.3165
MEAN_ANOMALY   = 275.8718

EPHEMERIS_TYPE = 0
CLASSIFICATION_TYPE = U
NORAD_CAT_ID   = 67687
ELEMENT_SET_NO = 999
REV_AT_EPOCH   = 117
BSTAR          = .62197E-3
MEAN_MOTION_DOT = .35301E-3
MEAN_MOTION_DDOT = 0

CCSDS_OMM_VERS = 2.0
CREATION_DATE  = 
ORIGINATOR     = 

OBJECT_NAME    = ISS OBJECT YE
OBJECT_ID      = 1998-067YE
CENTER_NAME    = EARTH
REF_FRAME      = TEME
TIME_SYSTEM    = UTC
MEAN_ELEMENT_THEORY = SGP/SGP4

EPOCH          = 2026-02-14T21:58:23.761056
MEAN_MOTION    = 15.50209615
ECCENTRICITY   = .0007748
INCLINATION    = 51.6313
RA_OF_ASC_NODE = 184.8318
ARG_OF_PERICENTER = 82.8507
MEAN_ANOMALY   = 277.3363

EPHEMERIS_TYPE = 0
CLASSIFICATION_TYPE = U
NORAD_CAT_ID   = 67688
ELEMENT_SET_NO = 999
REV_AT_EPOCH   = 117
BSTAR          = .69677E-3
MEAN_MOTION_DOT = .39845E-3
MEAN_MOTION_DDOT = 0

CCSDS_OMM_VERS = 2.0
CREATION_DATE  = 
ORIGINATOR     = 

OBJECT_NAME    = CREW DRAGON 12
OBJECT_ID      = 2026-031A
CENTER_NAME    = EARTH
REF_FRAME      = TEME
TIME_SYSTEM    = UTC
MEAN_ELEMENT_THEORY = SGP/SGP4

EPOCH          = 2026-02-13T14:39:05.346720
MEAN_MOTION    = 16.18051748
ECCENTRICITY   = .0025866
INCLINATION    = 51.6318
RA_OF_ASC_NODE = 191.8838
ARG_OF_PERICENTER = 226.1048
MEAN_ANOMALY   = 133.7834

EPHEMERIS_TYPE = 0
CLASSIFICATION_TYPE = U
NORAD_CAT_ID   = 67796
ELEMENT_SET_NO = 999
REV_AT_EPOCH   = 3
BSTAR          = .25516E-3
MEAN_MOTION_DOT = .465694E-2
MEAN_MOTION_DDOT = .11779E-4

